FLOCK 4G-2              
1 62661U 25009BE  26068.66207492  .00013752  00000+0  51068-3 0  9995
2 62661  97.4044 151.2221 0003181 329.2677  30.8376 15.27675260121321
STARLINK-35893          
1 66565U 25268J   26068.17653314  .00027668  00000+0  10110-2 0  9996
2 66565  43.0028 349.7575 0001774 257.0329 103.0325 15.27585270 17884
